IRIDIUM 154             
1 43574U 18061F   26201.92979777  .00000014  00000+0 -20922-5 0  9992
2 43574  86.3935  42.6918 0002195  88.8609 271.2838 14.34217294418242
IRIDIUM 163             
1 43575U 18061G   26201.07354741  .00000074  00000+0  19263-4 0  9997
2 43575  86.3935  42.9641 0002123  87.7459 272.3980 14.34217883418098
IRIDIUM 156             
1 43576U 18061H   26201.81562962  .00000113  00000+0  33365-4 0  9999
2 43576  86.3937  42.6613 0002183  93.6766 266.4680 14.34217010418194
IRIDIUM 164             
1 43577U 18061J   26201.93614021 -.00000037  00000+0 -20126-4 0  9995
2 43577  86.3933  42.6515 0002227  88.6067 271.5384 14.34217363418255
IRIDIUM 159             
1 43578U 18061K   26201.83465810  .00000003  00000+0 -61475-5 0  9990
2 43578  86.3937  42.6302 0002104  87.0653 273.0784 14.34217453418208
IRIDIUM 180             
1 43922U 19002A   26201.90392345 -.00000058  00000+0 -27627-4 0  9990
2 43922  86.3994 339.5040 0002055  91.3332 268.8100 14.34217120393823
IRIDIUM 176             
1 43923U 19002B   26201.87108829  .00000500  00000+0  75380-4 0  9998
2 43923  86.6119 339.4562 0002341  91.7892 268.3593 14.72253852404207
IRIDIUM 168             
1 43924U 19002C   26201.89758136  .00000162  00000+0  50713-4 0  9990
2 43924  86.4001 339.5845 0002201  91.4699 268.6749 14.34218204393807
IRIDIUM 173             
1 43925U 19002D   26201.88489478 -.00000021  00000+0 -14661-4 0  9998
2 43925  86.3993 339.4777 0002022  92.8813 267.2614 14.34217747393788
IRIDIUM 169             
1 43926U 19002E   26201.91719760  .00000149  00000+0  42258-4 0  9995
2 43926  86.4229  11.0874 0002086 104.6557 255.4872 14.38605042395072
IRIDIUM 172             
1 43927U 19002F   26201.87855261  .00000063  00000+0  15457-4 0  9994
2 43927  86.3998 339.4881 0002188  92.1119 268.0328 14.34218083393792
IRIDIUM 175             
1 43928U 19002G   26201.75473031  .00000167  00000+0  43420-4 0  9999
2 43928  86.4505 276.4902 0005519 104.6951 255.4862 14.43628988403824
IRIDIUM 171             
1 43929U 19002H   26201.92929439  .00000104  00000+0  30186-4 0  9993
2 43929  86.4007 339.7768 0002266  95.6186 264.5268 14.34217535393797
IRIDIUM 170             
1 43930U 19002J   26201.87725572  .00000492  00000+0  74158-4 0  9998
2 43930  86.6118 339.4557 0002196  89.2238 270.9231 14.72254419404211
IRIDIUM 167             
1 43931U 19002K   26201.92295096  .00000000  00000+0 -69816-5 0  9990
2 43931  86.3993 339.4924 0002269  97.8715 262.2738 14.34217539393790
IRIDIUM 181             
1 56726U 23068S   26201.93920074  .00000199  00000+0  53237-4 0  9992
2 56726  86.4475  42.6748 0002354  83.8844 276.2625 14.43309127167303
IRIDIUM 177             
1 56727U 23068T   26201.78872115  .00000590  00000+0  74499-4 0  9996
2 56727  86.1988 312.8397 0002236  97.8060 262.3414 14.80029838171335
IRIDIUM 174             
1 56728U 23068U   26201.86478847  .00000498  00000+0  75045-4 0  9995
2 56728  86.6125 339.6116 0001940  93.0867 267.0572 14.72259411170973
IRIDIUM 178             
1 56729U 23068V   26201.91296443  .00000132  00000+0  14011-4 0  9993
2 56729  86.6539  11.2646 0002227  92.5893 267.5584 14.80022064171358
IRIDIUM 179             
1 56730U 23068W   26201.90761678  .00000182  00000+0  20614-4 0  9992
2 56730  86.6770  20.3451 0002387  94.1648 265.9846 14.80024352171350
